[{"OBJECT_NAME":"STARLINK-3558","OBJECT_ID":"2022-029AH","EPOCH":"2026-03-09T06:06:46.734912","MEAN_MOTION":15.08824172,"ECCENTRICITY":0.00013971,"INCLINATION":53.2184,"RA_OF_ASC_NODE":81.0812,"ARG_OF_PERICENTER":61.7414,"MEAN_ANOMALY":298.3719,"EPHEMERIS_TYPE":0,"CLASSIFICATION_TYPE":"U","NORAD_CAT_ID":52119,"ELEMENT_SET_NO":999,"REV_AT_EPOCH":22072,"BSTAR":-7.4606671e-5,"MEAN_MOTION_DOT":-1.475e-5,"MEAN_MOTION_DDOT":0},{"OBJECT_NAME":"OBJECT M","OBJECT_ID":"2017-042M","EPOCH":"2026-03-09T22:38:39.337440","MEAN_MOTION":15.07991931,"ECCENTRICITY":0.0005117,"INCLINATION":97.4139,"RA_OF_ASC_NODE":234.2602,"ARG_OF_PERICENTER":83.1417,"MEAN_ANOMALY":277.0393,"EPHEMERIS_TYPE":0,"CLASSIFICATION_TYPE":"U","NORAD_CAT_ID":42836,"ELEMENT_SET_NO":999,"REV_AT_EPOCH":47205,"BSTAR":0.00047182615,"MEAN_MOTION_DOT":7.201e-5,"MEAN_MOTION_DDOT":0}]
